IRIDIUM 126             
1 42809U 17039G   24219.60327486  .00000179  00000+0  56696-4 0  9999
2 42809  86.3945 277.6230 0002419  95.5379 264.6092 14.34218200372546
IRIDIUM 124             
1 42810U 17039H   24219.47150588  .00000325  00000+0  90584-4 0  9990
2 42810  86.4493 214.4170 0002283  81.1120 279.0339 14.43286982377072
IRIDIUM 128             
1 42811U 17039J   24219.80331429 -.00000150  00000+0 -60684-4 0  9999
2 42811  86.3983 309.0765 0002283  89.6435 270.5022 14.34216431372600
IRIDIUM 121             
1 42812U 17039K   24219.69206882  .00000461  00000+0  15752-3 0  9999
2 42812  86.3945 277.6089 0002305  90.7489 269.3970 14.34220073372554
IRIDIUM 133             
1 42955U 17061A   24219.34665098  .00000199  00000+0  64072-4 0  9990
2 42955  86.3990 309.3682 0002375  96.3548 263.7919 14.34218817357332
IRIDIUM 100             
1 42956U 17061B   24219.54961044  .00000155  00000+0  48426-4 0  9990
2 42956  86.3989 309.2179 0002232  94.7206 265.4245 14.34221137357369
IRIDIUM 122             
1 42957U 17061C   24219.51790099  .00000650  00000+0  22511-3 0  9994
2 42957  86.3989 309.2296 0002398  94.5493 265.5977 14.34219374357362
IRIDIUM 129             
1 42958U 17061D   24219.54326898  .00000060  00000+0  14307-4 0  9990
2 42958  86.3989 309.2787 0002517  96.6690 263.4792 14.34217640357381
